{"fetched_at":"2026-03-29T02:12:04Z","count":15717,"tles":[{"name":"YAMAL 300K","line1":"1 38978U 12061B   26087.08181881  .00000052  00000+0  00000+0 0  9998","line2":"2 38978   0.0098 228.2695 0000886   5.8458 163.7716  1.00271722 48814","category":"Other"}]}